#dP2022  8 24  0  0  0.00000000      97 __u+U IGS14 FIT  IAC
## 2224 259200.00000000   900.00000000 59815 0.0000000000000
+  117   C06C07C08C09C10C11C12C13C14C16C19C20C21C22C23C24C25
+        C26C27C28C29C30C32C33C34C35C36C37C38C39C40C41C42C43
+        C44C45C46E01E02E03E04E05E07E08E09E10E11E12E13E14E15
+        E18E19E21E24E25E26E27E30E31E33E34E36G01G02G03G04G05
+        G06G07G08G09G10G11G12G13G14G15G16G17G18G19G20G21G22
+        G23G24G25G26G27G28G29G30G31G32J02J03R01R02R03R04R05
+        R07R08R09R11R12R13R14R15R17R18R19R20R21R24R25  0  0
++         7  7  7  7  7  7  6  7  7  7  6  5  5  6  6  6  5
++         6  5  5  6  6  6  5  6  6  6  6  6  7  6  6  6  6
++         6  6  6  4  4  4  4  4  4  4  4  4  4  4  4  4  4
++         5  4  4  4  4  4  4  4  4  4  4  4  3  4  3  3  4
++         3  3  4  3  4  3  3  4  3  4  4  3  4  3  4  3  3
++         3  3  3  3  3  4  3  3  3  3  9  9  7  6  6  6  6
++         6  6  6  6  6  7  6  6  6  6  7  7  6  6 12  0  0
%c M  cc GPS ccc cccc cccc cccc cccc ccccc ccccc ccccc ccccc
%c cc cc ccc ccc cccc cccc cccc cccc ccccc ccccc ccccc ccccc
%f  1.2500000  1.025000000  0.00000000000  0.000000000000000
%f  0.0000000  0.000000000  0.00000000000  0.000000000000000
%i    0    0    0    0      0      0      0      0         0
%i    0    0    0    0      0      0      0      0         0
/* INFORMATION & ANALYSIS CENTER (IAC)            FINAL DATA
/* S/V CLOCKS ARE ALIGNED TO GNSS TIME                      
/* G:C1WC2W R:C1PC2P E:C1XC5X C:C2IC6I J:C1CC2S             
/* PCV:IGS14_2218 OL/AL:FES2004  NONE     YN ORB:CoN CLK:CoN
*  2022 08 24  3 45  0.00000000
PC06 -19189.993914  30910.458540 -21483.945174    679.158788
PC07  -5861.413708  38950.090510 -14756.188352    -44.436372
PC08  -3363.013080  21218.031980  36277.560188    450.695991
PC09 -11936.960534  29671.259047 -27358.573238   -885.571039
PC10    -71.596976  40919.845440  -8665.212893    105.170697
PC11 -18512.688918  -2923.355183 -20599.096076   -451.102244
PC12  -2786.940972 -16484.466873 -22314.248061   -541.320452
PC13   3529.991730  24689.714603  34175.502358     61.159914
PC14 -15579.023508 -12684.632214  19405.616447    608.823108
PC16 -22367.184105  30463.682155 -18763.591237    141.547394
PC19  16046.459807   1686.236681 -22748.812988   -497.221554
PC20  13120.034035  20041.529013 -14285.269388    246.082095
PC21  -2032.350993 -27635.428504  -3400.402081   -249.166010
PC22   9869.907580 -18484.250617 -18450.534153   -309.451500
PC23 -16785.589040   9179.216844 -20301.704574   -970.776908
PC24 -20171.840234 -16049.038084  10659.347079   -969.978085
PC25 -26531.547375  -3530.102395  -7863.945207   -688.493322
PC26  -4067.129255 -17653.415661  21210.053656    690.814602
PC27  -5748.944712  20458.378117  18069.458456     10.009398
PC28 -20206.959990  18935.461989   3406.456660      4.797907
PC29  23053.158363  -6673.345614  14236.431702      3.977944
PC30  12119.623349  10505.403689  22827.240493    502.375589
PC32   2168.196816  27594.473659   3508.533433   -838.312925
PC33 -16106.009027  -1743.064845  22722.190030   -486.040169
PC34 -13092.498176  -9645.405837 -22691.853931   -329.374759
PC35  20205.421609 -19109.178591  -2142.358415    426.407382
PC36  26536.981488   4546.922969   7379.121014   -968.000356
PC37   2336.147269  17511.639342 -21583.860499   -939.397354
PC38 -12492.958229  19763.965636  35080.870623     19.301584
PC39 -25095.035145  31155.951828 -13589.332035     -0.304423
PC40 -10345.217556  36169.894959 -18817.341037     -2.858257
PC41 -10148.332925  18023.760894  18775.897429    -13.707077
PC42 -12753.791849 -20925.058300  13407.550582   -168.726421
PC43 -22952.617678   5889.183054 -14761.820367     10.335751
PC44   5087.966122 -20786.195545 -17910.097448     27.390688
PC45  16457.881079  -9308.772990  20540.045086    842.865045
PC46  21412.996851  15364.444324  -9220.640425   -503.085759
PE01  21521.967899   5634.736677  19534.072282   -540.649919
PE02 -21462.228848  -5454.302505 -19630.090349    320.280054
PE03 -18943.095549   6448.900788  21803.039532   -592.614928
PE04  15463.947367 -23843.913035  -8279.574427  -1100.123505
PE05 -11354.907169 -15103.920674  22785.726782   -150.659911
PE07  -2712.521803  27531.718030 -10508.944307   -699.293033
PE08 -15292.703156  23969.126409   8207.405243   -586.560495
PE09   2750.255178 -27550.608037  10491.206790   -633.666957
PE10  11723.008975 -16202.872608 -21839.159778   -471.947766
PE11   -339.235778 -16228.002919 -24767.556842   2512.879739
PE12  21128.145078 -13647.038666 -15607.201184   -131.329072
PE13   -553.563122  16245.503157  24734.236954    430.360713
PE14 -21154.725914   3888.676335 -19692.345198  -1740.663337
PE15 -21267.113968  13573.399630  15476.539642    724.937359
PE18  19129.826290 -19949.323440   7362.771365  -1059.261588
PE19  18460.211728  -3628.989231 -22848.495652  -4725.241134
PE21  20675.438351  20651.042723   4718.916931   -753.601106
PE24  -6882.068030 -24784.709375  14625.762609   -797.721483
PE25 -20554.819456 -20834.168843  -4413.238075   -585.535205
PE26  21058.574547   9045.890434  18735.466338  -1530.615077
PE27   7927.908313  24957.518525 -13795.089171   -375.471733
PE30 -10167.879460  13806.257899 -24130.209255   -779.325414
PE31   9380.614309 -14535.224797  24033.189882   -502.217395
PE33  29318.963796  -2910.211366   2854.753030   -453.679421
PE34 -29310.122591   3066.686245  -2691.657724     -0.950547
PE36 -20295.187242  -9370.339899 -19405.664330   -421.171802
PG01 -10116.425754 -13389.360897 -20982.103679    296.490727
PG02  -4602.613583  15701.829582  21604.980424   -648.253066
PG03 -11686.002296 -23489.862432  -4620.998156   -338.041468
PG04  -2511.132359 -20179.145218  17042.162123   -128.847178
PG05   2271.750214  21402.575108  15298.328242    -94.020383
PG06 -24342.115591   6797.395771   8354.528728    436.293677
PG07 -23464.323629  -6873.117039  11377.550291    312.672175
PG08   3641.213801 -24113.068750 -10116.854194    -81.731126
PG09 -11817.954683 -10307.588458  21360.369927   -304.657651
PG10  17922.923094   3416.923585 -19262.091821     -0.116990
PG11 -15729.316769  12255.241502  17526.414025    -12.371456
PG12   8827.622647  24411.824220  -6141.536400   -267.126792
PG13 -12702.226568  22948.462253  -3654.002357    373.806339
PG14 -18490.878728  -5231.089053 -18373.485142   -107.825348
PG15   -361.101232  24477.912503 -10343.906873    -34.790743
PG16   5106.558176 -17700.718099  18683.039933   -521.715666
PG17 -17681.884340   5389.064900 -18659.033041    651.748837
PG18  23715.219361   6172.675724  10401.022145     71.950656
PG19 -18960.230887  13582.408981 -12718.595073    201.262754
PG20  -8430.817358  13567.234978  21249.716553    492.269711
PG21   -593.610937 -14951.574160 -21292.942850    160.214662
PG22  18028.313556 -16529.756199  -9714.836918    315.237216
PG23  19568.226116  12930.917802 -12592.476716    -37.847709
PG24   6236.846600  15051.541585 -21332.157383    158.854928
PG25  17367.413472  19578.409592   5020.500354    364.257429
PG26  11963.417641 -10200.596537  21311.117872    225.205807
PG27  12530.201385 -23126.859537   1261.666349    217.588087
PG28 -14472.833725   4152.925967 -21355.069539    340.576528
PG29  10186.833886  11306.193184  21710.891471   -545.480117
PG30 -26685.135419    576.464131    798.375952   -536.279538
PG31  23644.379092  -7755.601652   9775.115112   -190.779277
PG32  17863.987383  -8594.633597 -17434.086155   -212.571880
PJ02 -22070.686301  19135.801594 -25833.989138     -3.676516
PJ03 -29453.689769  29563.537806  10963.140815     -0.900020
PR01  -9005.668306  14819.378942  18699.253013     13.631479
PR02  -1827.723709  25400.692005   2018.013315    527.781398
PR03   6382.646315  19911.228663 -14612.311536     62.420257
PR04  10590.245153   3460.347373 -22923.310997    155.013495
PR05   9194.537069 -14816.381659 -18599.231557     98.446079
PR07  -6711.505648 -19260.019485  15321.306524     39.852984
PR08 -10767.244394  -3219.567770  22949.692589    -66.854593
PR09  -3769.783167 -14179.675296  20909.035152     72.864334
PR11 -22520.452495  -8889.411084  -8041.362692     29.524277
PR12 -13321.832112   3905.819440 -21363.834809     20.367830
PR13   2319.198272  13403.580968 -21584.892966    -26.044226
PR14  18254.033809  15689.092009  -8395.481245     24.428461
PR15  22313.527308   8487.301969   9003.216501     94.064443
PR17   8193.048598   7449.070062  22987.382016    555.070538
PR18  20514.940366  -3294.161793  14778.667679     39.001750
PR19  22898.539641 -11255.841051     -0.692947   -201.101275
PR20  10559.550352 -14216.150046 -18340.928607    -77.103971
PR21  -9507.031611  -6546.171228 -22746.324648   -328.047151
PR24  -9361.415740  14731.243082  18603.424694    110.620480
PR25 -21103.061002   2724.155227 -14050.520674 999999.999999
EOF
